SatCatId,ObjectName,LaunchYear,OrbitalPeriod,LaunchMass,StatusCode,Inclination,Status,UcsData,OrbitClassEstimated,LaunchSiteCountry,Owner,UseType,Purpose,LaunchVehicleClass,TLE1,TLE2,MeanMotion,Eccentricity,OrbitClass
49298,ONEWEB-0372,2021,109.03,148.0,+,87.92,Active,1,LEO,Russia,UK,Commercial,Communications,Soyuz,1 49298U 21090V   25289.14871044  .00000077  00000+0  15725-3 0  9995,2 49298  87.9211 323.1130 0001858  98.5046 261.6298 13.20768985197627,13.20768985,0.0001858,LEO
49299,ONEWEB-0373,2021,109.03,148.0,+,87.92,Active,1,LEO,Russia,UK,Commercial,Communications,Soyuz,1 49299U 21090W   25289.47870001  .00000030  00000+0  42592-4 0  9996,2 49299  87.9213 323.0608 0001924  92.3846 267.7508 13.20769633198851,13.20769633,0.0001924,LEO
49300,ONEWEB-0374,2021,109.55,148.0,+,87.9,Active,1,LEO,Russia,UK,Commercial,Communications,Soyuz,1 49300U 21090X   25289.38957923 -.00000155  00000+0 -45355-3 0  9997,2 49300  87.9041 338.2615 0001389  87.6905 272.4383 13.14504740195532,13.1450474,0.0001389,LEO
49301,ONEWEB-0375,2021,109.03,148.0,+,87.92,Active,1,LEO,Russia,UK,Commercial,Communications,Soyuz,1 49301U 21090Y   25289.54183377 -.00000175  00000+0 -46151-3 0  9997,2 49301  87.9212 323.0280 0001722  76.9441 283.1885 13.20771090198361,13.2077109,0.0001722,LEO
49302,ONEWEB-0376,2021,109.11,148.0,+,87.93,Active,1,LEO,Russia,UK,Commercial,Communications,Soyuz,1 49302U 21090Z   25289.43729270 -.00000153  00000+0 -41478-3 0  9997,2 49302  87.9272 353.4399 0001867 107.0376 253.0961 13.19725180194307,13.1972518,0.0001867,LEO
49303,ONEWEB-0377,2021,109.03,148.0,+,87.92,Active,1,LEO,Russia,UK,Commercial,Communications,Soyuz,1 49303U 21090AA  25289.14899389  .00000173  00000+0  39459-3 0  9991,2 49303  87.9216 323.1030 0002047  91.2065 268.9303 13.20769853198308,13.20769853,0.0002047,LEO
49304,ONEWEB-0378,2021,109.03,148.0,+,87.92,Active,1,LEO,Russia,UK,Commercial,Communications,Soyuz,1 49304U 21090AB  25289.47411656 -.00000052  00000+0 -16022-3 0  9994,2 49304  87.9225 323.0534 0001814  91.5590 268.5751 13.20770304197613,13.20770304,0.0001814,LEO
49305,ONEWEB-0379,2021,109.55,148.0,+,87.9,Active,1,LEO,Russia,UK,Commercial,Communications,Soyuz,1 49305U 21090AC  25289.38481639 -.00000012  00000+0 -65483-4 0  9995,2 49305  87.9043 338.2703 0001743  98.7846 261.3482 13.14503891195531,13.14503891,0.0001743,LEO
49306,ONEWEB-0380,2021,109.11,148.0,+,87.93,Active,1,LEO,Russia,UK,Commercial,Communications,Soyuz,1 49306U 21090AD  25289.43413522  .00000093  00000+0  19989-3 0  9994,2 49306  87.9267 353.4661 0001888  93.3558 266.7791 13.19723524194277,13.19723524,0.0001888,LEO
49307,ONEWEB-0381,2021,109.03,148.0,+,87.92,Active,1,LEO,Russia,UK,Commercial,Communications,Soyuz,1 49307U 21090AE  25289.37297174 -.00000128  00000+0 -34750-3 0  9995,2 49307  87.9207 323.0651 0001783  86.9450 273.1888 13.20771507197646,13.20771507,0.0001783,LEO
49308,ONEWEB-0382,2021,109.03,148.0,+,87.92,Active,1,LEO,Russia,UK,Commercial,Communications,Soyuz,1 49308U 21090AF  25289.36033655  .00000028  00000+0  36597-4 0  9996,2 49308  87.9217 323.0592 0001661  88.6649 271.4674 13.20768556197639,13.20768556,0.0001661,LEO
49309,ONEWEB-0383,2021,109.55,148.0,+,87.9,Active,1,LEO,Russia,UK,Commercial,Communications,Soyuz,1 49309U 21090AG  25289.15013756  .00000018  00000+0  13300-4 0  9990,2 49309  87.9048 338.2997 0001677  97.6621 262.4700 13.14502027195535,13.14502027,0.0001677,LEO
49310,ONEWEB-0384,2021,109.03,148.0,+,87.92,Active,1,LEO,Russia,UK,Commercial,Communications,Soyuz,1 49310U 21090AH  25289.50637761  .00000026  00000+0  31893-4 0  9995,2 49310  87.9230 323.0603 0001427  87.0598 273.0699 13.20794947197667,13.20794947,0.0001427,LEO
49311,ONEWEB-0385,2021,109.03,148.0,+,87.92,Active,1,LEO,Russia,UK,Commercial,Communications,Soyuz,1 49311U 21090AJ  25289.50397220 -.00000072  00000+0 -20998-3 0  9995,2 49311  87.9211 323.0407 0001746  92.0966 268.0367 13.20772013197631,13.20772013,0.0001746,LEO
49312,ONEWEB-0386,2021,109.03,148.0,+,87.92,Active,1,LEO,Russia,UK,Commercial,Communications,Soyuz,1 49312U 21090AK  25289.36980969  .00000059  00000+0  11424-3 0  9995,2 49312  87.9219 323.0461 0001619  90.6203 269.5116 13.20769867197638,13.20769867,0.0001619,LEO
49313,ONEWEB-0387,2021,109.03,148.0,+,87.92,Active,1,LEO,Russia,UK,Commercial,Communications,Soyuz,1 49313U 21090AL  25289.50552992 -.00000005  00000+0 -44050-4 0  9998,2 49313  87.9209 323.0697 0001962  85.6053 274.5305 13.20769450197653,13.2076945,0.0001962,LEO
49314,ONEWEB-0388,2021,109.11,148.0,+,87.93,Active,1,LEO,Russia,UK,Commercial,Communications,Soyuz,1 49314U 21090AM  25289.42939472 -.00000138  00000+0 -37826-3 0  9991,2 49314  87.9260 353.4729 0001751  96.4465 263.6867 13.19725615194266,13.19725615,0.0001751,LEO
49316,OBJECT B,2021,94.83,-1.0,+,97.45,Active,0,LEO,PRC,China,Unknown,Unknown,Unknown,1 49316U 21091B   25289.60445362  .00005658  00000+0  27676-3 0  9996,2 49316  97.4487 115.9421 0012895 125.4068 234.8373 15.18534228222025,15.18534228,0.0012895,LEO
49330,SHIJIAN-21 (SJ-21),2021,1435.97,5000.0,+,4.57,Active,1,GSO,PRC,China,Government,Technology Development,Long March,1 49330U 21094A   25289.66222301 -.00000354  00000+0  00000+0 0  9994,2 49330   4.5653  62.6359 0055895 167.6483 161.7135  1.00280631  2773,1.00280631,0.0055895,GSO
49332,SES-17,2021,1436.13,6411.0,+,0.02,Active,1,GSO,French Guiana,SES,Commercial,Communications,Ariane,1 49332U 21095A   25289.47112885 -.00000285  00000+0  00000+0 0  9994,2 49332   0.0175  32.1346 0001140 181.6699 273.9420  1.00269665 15414,1.00269665,0.000114,GEO
49333,SYRACUSE 4A,2021,1436.11,3852.0,+,0.02,Active,1,GSO,French Guiana,France,Military,Communications,Ariane,1 49333U 21095B   25289.20800762  .00000122  00000+0  00000+0 0  9993,2 49333   0.0196 247.9431 0001458 305.8782 311.5589  1.00271166 15519,1.00271166,0.0001458,GEO
49336,QZS-1R (MICHIBIKI-1R),2021,1436.03,4100.0,+,36.96,Active,1,GSO,Japan,Japan,Government,Navigation (Global or Regional Positioning),H2A,1 49336U 21096A   25289.25462241 -.00000223  00000+0  00000+0 0  9991,2 49336  36.9569  83.2105 0747532 270.3057 259.3221  1.00276411 14568,1.00276411,0.0747532,GSO
49338,JILIN-1 GAOFEN 2F,2021,95.67,230.0,+,97.64,Active,1,LEO,PRC,China,Commercial,Earth Observation,Kuaizhou,1 49338U 21097A   25289.62000698  .00006688  00000+0  47234-3 0  9993,2 49338  97.6441  52.3206 0019185 338.9287  21.1147 15.05106445219641,15.05106445,0.0019185,LEO
49383,YAOGAN-32 02A,2021,98.39,-1.0,+,98.26,Active,1,LEO,PRC,China,Military,Earth Observation,Long March,1 49383U 21099A   25289.64587460  .00001519  00000+0  30153-3 0  9994,2 49383  98.2606  57.9598 0000776  91.5095 268.6196 14.63624745210735,14.63624745,7.76e-05,LEO
49384,YAOGAN-32 02B,2021,98.39,-1.0,+,98.26,Active,1,LEO,PRC,China,Military,Earth Observation,Long March,1 49384U 21099B   25289.64571492  .00001243  00000+0  24847-3 0  9990,2 49384  98.2621  58.1906 0001047  95.7351 264.3971 14.63623695210739,14.63623695,0.0001047,LEO
49387,SDGSAT 1,2021,94.75,500.0,+,97.3,Active,1,LEO,PRC,China,Government,Earth Observation,Long March,1 49387U 21100A   25289.58465412  .00004545  00000+0  21501-3 0  9995,2 49387  97.3011 340.1588 0010078  67.8926 292.3379 15.19815276218929,15.19815276,0.0010078,LEO
49390,YAOGAN-35 01A,2021,94.63,300.0,+,34.99,Active,1,LEO,PRC,China,Military,Earth Observation,Long March,1 49390U 21101A   25289.59757659  .00011770  00000+0  50929-3 0  9992,2 49390  34.9921  11.1727 0004962 324.8318  35.2068 15.21638836219687,15.21638836,0.0004962,LEO
49393,YAOGAN-35 01C,2021,94.52,-1.0,+,35.0,Active,0,LEO,PRC,China,Unknown,Unknown,Unknown,1 49393U 21101D   25289.55658216  .00025711  00000+0  10482-2 0  9999,2 49393  35.0046 356.9490 0015133 323.3426  36.6253 15.23433057219842,15.23433057,0.0015133,LEO
49396,TEIKYOSAT-4 (OORURI),2021,95.47,52.0,+,97.4,Active,1,LEO,Japan,Japan,Civil,Technology Development,H2A,1 49396U 21102B   25289.08938372  .00003288  00000+0  21572-3 0  9993,2 49396  97.3989 322.8418 0013876  57.6992 302.5579 15.08252965215911,15.08252965,0.0013876,LEO
49397,RAISE 2,2021,94.88,4.0,+,97.36,Active,1,LEO,Japan,Japan,Civil,Technology Development,H2A,1 49397U 21102C   25289.57323786  .00008486  00000+0  42407-3 0  9990,2 49397  97.3592 324.2144 0010949  63.2452 296.9901 15.17649035216437,15.17649035,0.0010949,LEO
49399,Z-SAT,2021,95.01,46.0,+,97.37,Active,1,LEO,Japan,Japan,Commercial,Technology Development,H2A,1 49399U 21102E   25289.55206175  .00005808  00000+0  30769-3 0  9995,2 49399  97.3676 327.2191 0018105  22.0657 338.1352 15.15637509216507,15.15637509,0.0018105,LEO
49400,HIBARI,2021,94.39,55.0,+,97.36,Active,1,LEO,Japan,Japan,Civil,Technology Development,H2A,1 49400U 21102F   25289.13630452  .00012128  00000+0  48002-3 0  9993,2 49400  97.3629 333.3318 0012817 354.4464   5.6630 15.25513476216905,15.25513476,0.0012817,LEO
49401,DRUMS,2021,94.91,-1.0,+,97.37,Active,0,LEO,Japan,Japan,Unknown,Unknown,Unknown,1 49401U 21102G   25289.34685895  .00006553  00000+0  33099-3 0  9993,2 49401  97.3656 328.1652 0016375  11.5193 348.6412 15.17298721216566,15.17298721,0.0016375,LEO
49402,KOSEN-1,2021,94.6,3.0,+,97.36,Active,1,LEO,Japan,Japan,Civil,Technology Development,H2A,1 49402U 21102H   25289.60579053  .00010218  00000+0  44535-3 0  9991,2 49402  97.3571 331.7106 0014731 353.5800   6.5246 15.22277320216906,15.2227732,0.0014731,LEO
49408,STARLINK-3151,2021,95.44,260.0,+,53.21,Active,1,LEO,USA,USA,Commercial,Communications,Falcon,1 49408U 21104A   25289.37577394  .00000691  00000+0  61526-4 0  9993,2 49408  53.2143 157.0006 0001438  87.1760 272.9396 15.08840765216842,15.08840765,0.0001438,LEO
49409,STARLINK-3075,2021,95.44,260.0,+,53.22,Active,1,LEO,USA,USA,Commercial,Communications,Falcon,1 49409U 21104B   25289.05833621  .00003620  00000+0  24551-3 0  9998,2 49409  53.2166 158.3981 0001695  95.0266 265.0920 15.08827541216807,15.08827541,0.0001695,LEO
